C/2020 K7 (PANSTARRS),e,32.0412,286.0729,358.2331,101.7991,0.0009596,0.93724070,0.7505,12/19.0/2021,2000,g  8.0,4.0
# From MPEC 2021-P47
C/2020 K8 (Catalina-ATLAS),h,09/14.5467/2020,31.4242,181.5338,260.0159,1.000153,0.473942,2000,15.0,3.2
# From MPEC 2021-BE3
P/2020 K9 (Lemmon-PANSTARRS),e,23.2098,166.2399,196.9213,4.199561,0.1145245,0.32140489,35.5037,12/19.0/2021,2000,g 12.5,4.0
# From MPEC 2021-U31
P/2020 M1 (PANSTARRS),e,8.6474,142.8432,71.2021,5.273954,0.0813766,0.48183316,58.5171,12/19.0/2021,2000,g 14.5,4.0
# From MPEC 2021-N06
C/2020 M3 (ATLAS),e,23.4716,71.2292,328.4677,26.92602,0.0070542,0.95290539,2.9580,12/19.0/2021,2000,g 14.5,4.0
# From MPEC 2021-R75
A/2020 M4,e,160.1273,348.6220,104.6527,162202,0.0000000,0.99996330,0.0000,11/24.0786/2020,2000,g 14.5,2.0
# From MPEC 2021-Y10
C/2020 M5 (ATLAS),h,08/19.8756/2021,93.2239,352.0939,126.3369,1.000205,3.004321,2000,9.0,4.0
# From MPEC 2021-N06
C/2020 N1 (PANSTARRS),h,03/12.2178/2021,29.7041,279.9740,186.7625,1.000498,1.320426,2000,12.5,4.0
# From MPEC 2021-P47
C/2020 N2 (ATLAS),e,161.0350,257.0952,331.2648,102.6338,0.0009479,0.98251701,0.0000,08/23.7622/2020,2000,g 16.0,3.2
# From MPEC 2020-SI8
P/2020 O1 (Lemmon-PANSTARRS),e,5.2259,175.9762,104.5319,2.644641,0.2291680,0.11937170,136.4485,12/19.0/2021,2000,g 15.5,4.0
# From MPEC 2021-W31
C/2020 O2 (Amaral),h,08/28.5871/2021,71.7500,256.7567,10.3056,1.002390,4.862211,2000,8.0,3.2
# From MPEC 2020-SI8
P/2020 O3 (PANSTARRS),e,8.4418,266.8317,81.5948,4.651200,0.0982554,0.10408597,31.6988,12/19.0/2021,2000,g 12.0,4.0
# From MPEC 2021-BE3
C/2020 P1 (NEOWISE),h,10/20.1990/2020,45.0835,53.5201,8.8891,1.000269,0.341827,2000,14.0,3.2
# From MPEC 2021-Y10
C/2020 P3 (ATLAS),e,61.8856,19.4762,82.2506,18617,0.0000004,0.99963409,0.0000,04/20.8680/2021,2000,g  6.0,4.0
# From MPEC 2021-W31
C/2020 PV6 (PANSTARRS),e,128.2392,329.1444,71.3833,41.75439,0.0036530,0.94502006,0.3068,12/19.0/2021,2000,g 10.0,4.0
# From MPEC 2021-N06
C/2020 Q1 (Borisov),e,142.9159,52.4159,9.9015,58.71482,0.0021907,0.97760478,0.0000,08/14.5837/2020,2000,g 14.0,4.0
# From MPEC 2021-Y10
C/2020 R2 (PANSTARRS),e,53.2271,195.0927,211.7310,412.0887,0.0001178,0.98861435,0.0000,02/24.4629/2022,2000,g  9.0,4.0
# From MPEC 2021-S45
C/2020 R4 (ATLAS),e,164.4629,323.2739,46.7208,98.47750,0.0010086,0.98955417,0.0000,03/01.9565/2021,2000,g 13.5,4.0
# From MPEC 2020-W26
P/2020 R5 (PANSTARRS),e,11.4521,272.9767,82.4362,4.982640,0.0886165,0.31471792,50.4353,12/19.0/2021,2000,g  9.5,6.0
# From MPEC 2021-Y10
C/2020 R6 (Rankin),e,82.8108,12.1776,272.0059,359.9311,0.0001443,0.99130060,0.0000,09/09.6420/2019,2000,g 11.0,4.0
# From MPEC 2021-Y10
C/2020 R7 (ATLAS),e,114.8923,268.2790,347.8268,33386,0.0000002,0.99991146,0.0000,09/16.2095/2022,2000,g  7.0,3.2
# From MPEC 2021-BE3
P/2020 S1 (PANSTARRS),e,13.7336,129.4606,254.9199,5.984697,0.0673195,0.50746287,22.6106,12/19.0/2021,2000,g 14.0,4.0
# From MPEC 2021-BE3
C/2020 S2 (PANSTARRS),e,22.3989,197.6740,202.2903,10.19699,0.0302689,0.82778053,10.9577,12/19.0/2021,2000,g 17.0,4.0
# From MPEC 2021-WD8
C/2020 S3 (Erasmus),e,19.9081,222.8482,349.9548,181.4604,0.0004032,0.99781031,0.0000,12/12.6867/2020,2000,g 13.5,3.2
# From MPEC 2021-Y10
C/2020 S4 (PANSTARRS),h,02/09.3627/2023,20.5735,117.7193,21.0160,1.000358,3.369306,2000,8.5,3.2
# From MPEC 2021-BE3
P/2020 S5 (PANSTARRS),e,12.3534,316.0008,53.0919,4.051113,0.1208767,0.33858558,60.1129,12/19.0/2021,2000,g 14.5,4.0
# From MPEC 2021-P47
P/2020 S6 (Leonard),e,15.4592,242.5561,176.6668,3.600030,0.1442929,0.47929319,56.3244,12/19.0/2021,2000,g 16.0,4.0
# From MPEC 2021-BE3
P/2020 S7 (PANSTARRS),e,16.0919,328.0191,40.4638,5.025390,0.0874882,0.41066134,34.6167,12/19.0/2021,2000,g 14.5,4.0
# From MPEC 2021-P47
C/2020 S8 (Lemmon),e,108.5237,24.0547,160.3319,276.3086,0.0002146,0.99144531,0.0000,04/10.9256/2021,2000,g 12.5,4.0
# From MPEC 2021-WD8
C/2020 T2 (Palomar),e,27.8716,83.0470,150.3938,313.6635,0.0001774,0.99344908,0.0000,07/11.1680/2021,2000,g 11.0,3.2
# From MPEC 2021-N06
P/2020 T3 (PANSTARRS),e,7.2955,74.0097,357.0380,3.517476,0.1494023,0.59167349,49.6792,12/19.0/2021,2000,g 18.0,3.2
# From MPEC 2021-N06
C/2020 T4 (PANSTARRS),h,07/05.2596/2021,83.8155,50.6172,79.6093,1.000075,2.191872,2000,13.0,3.2
# From MPEC 2021-BE3
C/2020 T5 (Lemmon),e,66.5915,237.8602,90.3060,835.3441,0.0000408,0.99773818,0.0000,10/09.6137/2020,2000,g 16.0,4.0
# From MPEC 2021-N06
P/2020 U2 (PANSTARRS),e,6.4212,342.8993,84.6415,3.778038,0.1342161,0.51071334,48.0864,12/19.0/2021,2000,g 18.0,4.0
# From MPEC 2021-W31
C/2020 U3 (Rankin),e,30.1728,282.6780,124.2743,65.48592,0.0018599,0.96524087,0.5877,12/19.0/2021,2000,g 15.0,4.0
# From MPEC 2021-Y10
C/2020 U4 (PANSTARRS),h,04/07.9011/2022,167.0361,120.0154,69.5263,1.001509,5.353733,2000,7.0,4.0
# From MPEC 2021-Y10
C/2020 U5 (PANSTARRS),e,97.2714,107.3384,75.4144,6377,0.0000019,0.99941101,0.0000,04/27.8712/2022,2000,g  8.0,4.0
# From MPEC 2021-Y10
C/2020 V2 (ZTF),h,05/08.4887/2023,131.6081,212.3595,162.3976,1.001230,2.228320,2000,4.9,4.0
# From MPEC 2021-N06
P/2020 V3 (PANSTARRS),e,23.0315,198.2649,249.3229,8.370283,0.0406999,0.25567981,12.7578,12/19.0/2021,2000,g  8.3,4.0
# From MPEC 2021-Y10
P/2020 V4 (Rankin),e,14.2429,203.4981,256.9905,9.349285,0.0344776,0.44931111,5.3170,12/19.0/2021,2000,g  9.0,4.0
# From MPEC 2021-BE3
P/2020 W1 (Rankin),e,10.7914,124.2627,264.8921,7.203439,0.0509793,0.26581940,31.7253,12/19.0/2021,2000,g 10.0,4.0
# From MPEC 2021-BE3
C/2020 W5 (Lemmon),h,11/30.0813/2020,88.5832,75.5019,24.4801,1.000777,3.364271,2000,15.0,4.0
# From MPEC 2021-P47
P/2020 X1 (ATLAS),e,31.6952,56.0192,323.2866,4.527095,0.1023233,0.36549835,52.8563,12/19.0/2021,2000,g 13.0,4.0
# From MPEC 2021-U31
C/2020 X2 (ATLAS),e,18.1889,105.4538,347.3394,16.40896,0.0148280,0.76670918,5.9044,12/19.0/2021,2000,g 10.6,4.0
# From MPEC 2021-S45
C/2020 X4 (Leonard),e,80.6201,161.8890,140.2197,43.32043,0.0034567,0.87964828,1.3727,12/19.0/2021,2000,g  9.0,4.0
# From MPEC 2021-Y10
C/2020 Y2 (ATLAS),e,101.2959,26.5109,266.0990,1175,0.0000245,0.99733474,0.0000,06/17.6690/2022,2000,g  6.5,4.0
# From MPEC 2021-R75
C/2020 Y3 (ATLAS),e,83.1010,191.4337,342.0268,148.5286,0.0005445,0.98654192,0.0000,12/03.4492/2020,2000,g 13.5,4.0
# From MPEC 2021-XG5
C/2021 A1 (Leonard),h,01/03.2995/2022,132.6865,255.8963,225.0926,1.000052,0.615249,2000,8.5,4.0
# From MPEC 2021-U31
C/2021 A2 (NEOWISE),e,106.9775,125.2345,338.8301,249.2142,0.0002505,0.99433143,0.0000,01/22.6083/2021,2000,g 13.5,4.0
# From MPEC 2021-R75
C/2021 A4 (NEOWISE),e,111.5656,307.0904,204.6825,43.01760,0.0034933,0.97336052,0.0000,03/20.0255/2021,2000,g 16.0,4.0
# From MPEC 2021-BE3
P/2021 A5 (PANSTARRS),e,18.1879,328.7676,61.1767,3.046878,0.1853197,0.13979162,74.5301,12/19.0/2021,2000,g 15.0,4.0
# From MPEC 2021-P47
C/2021 A6 (PANSTARRS),e,75.6130,164.0791,351.7244,12004,0.0000007,0.99933951,0.0000,05/04.6406/2021,2000,g  7.0,4.0
# From MPEC 2021-W31
C/2021 A7 (NEOWISE),e,78.1496,154.5189,356.0539,5204,0.0000026,0.99962193,0.0000,07/15.3063/2021,2000,g 10.0,4.0
# From MPEC 2021-P47
C/2021 A9 (PANSTARRS),h,12/01.4092/2023,158.0277,314.8414,211.4666,1.004070,7.758942,2000,6.0,4.0
# From MPEC 2021-N06
C/2021 A10 (NEOWISE),e,151.5389,188.3530,82.3111,94.85796,0.0010668,0.98661820,0.0000,03/15.2894/2021,2000,g 19.0,4.0
# From MPEC 2021-O56
C/2021 B2 (PANSTARRS),e,38.0919,120.5542,334.9650,348.7866,0.0001513,0.99279508,0.0000,05/04.2597/2021,2000,g 14.0,4.0
# From MPEC 2021-N06
C/2021 B3 (NEOWISE),e,119.4837,67.2869,293.5550,34.88324,0.0047839,0.93807510,1.3544,12/19.0/2021,2000,g 13.5,4.0
# From MPEC 2021-P47
C/2021 C1 (Rankin),e,143.0433,186.8951,336.3057,63801,0.0000001,0.99994544,0.0000,12/07.1264/2020,2000,g 11.5,4.0
# From MPEC 2021-U31
P/2021 C2 (PANSTARRS),e,21.9277,66.4830,78.7848,9.536828,0.0334656,0.48726470,9.9672,12/19.0/2021,2000,g 12.0,4.0
# From MPEC 2021-N06
C/2021 C3 (Catalina),e,122.1643,181.9243,357.1384,63.14423,0.0019643,0.96395296,0.6081,12/19.0/2021,2000,g 14.0,4.0
# From MPEC 2021-P47
C/2021 C4 (ATLAS),e,132.8478,194.2754,320.2349,12967,0.0000007,0.99965264,0.0000,01/17.1125/2021,2000,g  9.0,4.0
# From MPEC 2021-Y10
C/2021 C5 (PANSTARRS),e,50.7858,323.6905,270.9175,4595,0.0000032,0.99929451,0.0000,02/11.0421/2023,2000,g  9.0,4.0
# From MPEC 2021-Y10
C/2021 C6 (Lemmon),h,11/13.3215/2021,164.6258,332.1558,203.5615,1.001746,3.271220,2000,12.0,4.0
# From MPEC 2021-N06
C/2021 D1 (SWAN),e,31.4581,311.2703,72.2309,97.71301,0.0010204,0.99077068,0.0000,02/27.6274/2021,2000,g 13.0,4.0
# From MPEC 2021-Y10
C/2021 D2 (ZTF),h,02/03.9819/2022,83.8310,305.6779,125.0300,1.001381,2.946290,2000,9.0,4.0
# From MPEC 2021-N06
A/2021 E2,e,167.4881,190.8166,342.4568,235.6312,0.0002725,0.99029044,0.0000,12/10.4702/2020,2000,g 15.0,2.0
# From MPEC 2021-Y10
C/2021 E3 (ZTF),h,06/11.9066/2022,112.5586,104.4675,228.8445,1.000842,1.777443,2000,8.5,4.0
# From MPEC 2021-P47
A/2021 E4,e,116.3609,171.1734,48.2803,708.6684,0.0000522,0.99340169,0.0000,04/25.3431/2022,2000,g 13.5,2.0
# From MPEC 2021-Y10
A/2021 F1,e,107.3241,203.4511,146.8212,236.5673,0.0002709,0.99579187,0.0000,04/06.8734/2022,2000,g 17.5,2.0
# From MPEC 2021-J72
C/2021 G1 (Leonard),e,131.5642,270.6962,107.4779,75.16485,0.0015125,0.95445201,0.2266,12/19.0/2021,2000,g 14.0,4.0
# From MPEC 2021-Y10
C/2021 G2 (ATLAS),e,48.4734,221.1252,343.3756,3781,0.0000042,0.99868331,0.0000,09/10.0675/2024,2000,g  5.5,4.0
# From MPEC 2021-M86
C/2021 G3 (PANSTARRS),h,10/18.5852/2021,102.8823,147.4186,10.6455,1.001052,5.181122,2000,10.5,4.0
# From MPEC 2021-Y10
P/2021 HS (PANSTARRS),e,12.1711,262.3905,46.0856,4.194672,0.1147247,0.81012788,15.4438,12/19.0/2021,2000,g 22.0,4.0
# From MPEC 2021-R75
C/2021 J1 (Maury-Attard),e,92.7089,88.3164,147.3037,26.22010,0.0073410,0.93362454,2.2212,12/19.0/2021,2000,g 15.5,4.0
# From MPEC 2021-R75
C/2021 J2 (PANSTARRS),e,156.2087,23.3289,172.0565,117.5561,0.0007733,0.95996212,0.0677,12/19.0/2021,2000,g 12.0,4.0
# From MPEC 2021-S45
P/2021 J3 (ATLAS),e,14.5536,111.2144,125.9258,8.941286,0.0368641,0.45041338,33.1047,12/19.0/2021,2000,g  7.0,4.0
